{"type": "FeatureCollection", "features": [ {"type": "Feature", "properties": {"norad_id": 44476, "name": "INTELSAT 39 (IS-39)", "group": "intelsat", "lat": -0.03248705677916445, "lon": -44.65659878167947, "alt_km": 35789.998465939076, "timestamp": "2025-12-27T10:28:58.458203+00:00", "meta": {"OBJECT_NAME": "INTELSAT 39 (IS-39)", "OBJECT_ID": "2019-049B", "EPOCH": "2025-12-27T03:01:28.036416", "MEAN_MOTION": 1.00270114, "ECCENTRICITY": 8.88e-05, "INCLINATION": 0.0212, "RA_OF_ASC_NODE": 10.4132, "ARG_OF_PERICENTER": 147.1518, "MEAN_ANOMALY": 45.6007, "EPHEMERIS_TYPE": 0, "CLASSIFICATION_TYPE": "U", "NORAD_CAT_ID": 44476, "ELEMENT_SET_NO": 999, "REV_AT_EPOCH": 2340, "BSTAR": 0, "MEAN_MOTION_DOT": 0, "MEAN_MOTION_DDOT": 0}, "tle": {"line1": "1 44476U 19049B   25361.12601894  .00000000  00000+0  00000+0 0  9994", "line2": "2 44476   0.0212  10.4132 0000888 147.1518  45.6007  1.00270114 23401"}}, "geometry": {"type": "Point", "coordinates": [-44.65659878167947, -0.03248705677916445]}}, {"type": "Feature", "properties": {"norad_id": 46114, "name": "GALAXY 30 (G-30)", "group": "intelsat", "lat": 0.016438923266341814, "lon": 128.38413375799553, "alt_km": 35794.543674170345, "timestamp": "2025-12-27T10:28:58.458215+00:00", "meta": {"OBJECT_NAME": "GALAXY 30 (G-30)", "OBJECT_ID": "2020-056C", "EPOCH": "2025-12-27T02:08:10.640256", "MEAN_MOTION": 1.00271233, "ECCENTRICITY": 0.0002329, "INCLINATION": 0.001, "RA_OF_ASC_NODE": 1.8662, "ARG_OF_PERICENTER": 274.1982, "MEAN_ANOMALY": 86.8, "EPHEMERIS_TYPE": 0, "CLASSIFICATION_TYPE": "U", "NORAD_CAT_ID": 46114, "ELEMENT_SET_NO": 999, "REV_AT_EPOCH": 1956, "BSTAR": 0, "MEAN_MOTION_DOT": 5.9e-07, "MEAN_MOTION_DDOT": 0}, "tle": {"line1": "1 46114U 20056C   25361.08901204  .00000059  00000+0  00000+0 0  9992", "line2": "2 46114   0.0010   1.8662 0002329 274.1982  86.8000  1.00271233 19563"}}, "geometry": {"type": "Point", "coordinates": [128.38413375799553, 0.016438923266341814]}}, {"type": "Feature", "properties": {"norad_id": 54026, "name": "GALAXY 33 (G-33)", "group": "intelsat", "lat": 0.029709270564854704, "lon": 120.39320564282212, "alt_km": 35792.979652254435, "timestamp": "2025-12-27T10:28:58.458227+00:00", "meta": {"OBJECT_NAME": "GALAXY 33 (G-33)", "OBJECT_ID": "2022-128A", "EPOCH": "2025-12-27T03:05:05.659872", "MEAN_MOTION": 1.00271469, "ECCENTRICITY": 0.0001835, "INCLINATION": 0.0166, "RA_OF_ASC_NODE": 354.2263, "ARG_OF_PERICENTER": 277.8367, "MEAN_ANOMALY": 97.0741, "EPHEMERIS_TYPE": 0, "CLASSIFICATION_TYPE": "U", "NORAD_CAT_ID": 54026, "ELEMENT_SET_NO": 999, "REV_AT_EPOCH": 1201, "BSTAR": 0, "MEAN_MOTION_DOT": 1.01e-06, "MEAN_MOTION_DDOT": 0}, "tle": {"line1": "1 54026U 22128A   25361.12853773  .00000101  00000+0  00000+0 0  9995", "line2": "2 54026   0.0166 354.2263 0001835 277.8367  97.0741  1.00271469 12016"}}, "geometry": {"type": "Point", "coordinates": [120.39320564282212, 0.029709270564854704]}}, {"type": "Feature", "properties": {"norad_id": 54027, "name": "GALAXY 34 (G-34)", "group": "intelsat", "lat": 0.03972638373556699, "lon": 124.43485645927734, "alt_km": 35792.59533115808, "timestamp": "2025-12-27T10:28:58.458238+00:00", "meta": {"OBJECT_NAME": "GALAXY 34 (G-34)", "OBJECT_ID": "2022-128B", "EPOCH": "2025-12-27T02:52:15.606048", "MEAN_MOTION": 1.00270541, "ECCENTRICITY": 0.0001792, "INCLINATION": 0.0234, "RA_OF_ASC_NODE": 18.5262, "ARG_OF_PERICENTER": 250.5921, "MEAN_ANOMALY": 100.846, "EPHEMERIS_TYPE": 0, "CLASSIFICATION_TYPE": "U", "NORAD_CAT_ID": 54027, "ELEMENT_SET_NO": 999, "REV_AT_EPOCH": 1218, "BSTAR": 0, "MEAN_MOTION_DOT": 0, "MEAN_MOTION_DDOT": 0}, "tle": {"line1": "1 54027U 22128B   25361.11962507  .00000000  00000+0  00000+0 0  9999", "line2": "2 54027   0.0234  18.5262 0001792 250.5921 100.8460  1.00270541 12187"}}, "geometry": {"type": "Point", "coordinates": [124.43485645927734, 0.03972638373556699]}}, {"type": "Feature", "properties": {"norad_id": 54243, "name": "GALAXY 31 (G-31)", "group": "intelsat", "lat": 0.02503330780804492, "lon": 132.38071601332197, "alt_km": 35793.39996519659, "timestamp": "2025-12-27T10:28:58.458250+00:00", "meta": {"OBJECT_NAME": "GALAXY 31 (G-31)", "OBJECT_ID": "2022-153A", "EPOCH": "2025-12-27T02:09:18.032256", "MEAN_MOTION": 1.00270516, "ECCENTRICITY": 0.0001852, "INCLINATION": 0.0099, "RA_OF_ASC_NODE": 16.8089, "ARG_OF_PERICENTER": 268.6382, "MEAN_ANOMALY": 81.6917, "EPHEMERIS_TYPE": 0, "CLASSIFICATION_TYPE": "U", "NORAD_CAT_ID": 54243, "ELEMENT_SET_NO": 999, "REV_AT_EPOCH": 540, "BSTAR": 0, "MEAN_MOTION_DOT": 0, "MEAN_MOTION_DDOT": 0}, "tle": {"line1": "1 54243U 22153A   25361.08979204  .00000000  00000+0  00000+0 0  9995", "line2": "2 54243   0.0099  16.8089 0001852 268.6382  81.6917  1.00270516  5404"}}, "geometry": {"type": "Point", "coordinates": [132.38071601332197, 0.02503330780804492]}}, {"type": "Feature", "properties": {"norad_id": 54244, "name": "GALAXY 32 (G-32)", "group": "intelsat", "lat": 0.01637974969199542, "lon": 162.39683217916104, "alt_km": 35793.891874767236, "timestamp": "2025-12-27T10:28:58.458261+00:00", "meta": {"OBJECT_NAME": "GALAXY 32 (G-32)", "OBJECT_ID": "2022-153B", "EPOCH": "2025-12-27T02:25:08.444352", "MEAN_MOTION": 1.00271678, "ECCENTRICITY": 0.0002089, "INCLINATION": 0.0102, "RA_OF_ASC_NODE": 24.2053, "ARG_OF_PERICENTER": 290.1445, "MEAN_ANOMALY": 86.7763, "EPHEMERIS_TYPE": 0, "CLASSIFICATION_TYPE": "U", "NORAD_CAT_ID": 54244, "ELEMENT_SET_NO": 999, "REV_AT_EPOCH": 1141, "BSTAR": 0, "MEAN_MOTION_DOT": -1.52e-06, "MEAN_MOTION_DDOT": 0}, "tle": {"line1": "1 54244U 22153B   25361.10079218 -.00000152  00000+0  00000+0 0  9994", "line2": "2 54244   0.0102  24.2053 0002089 290.1445  86.7763  1.00271678 11410"}}, "geometry": {"type": "Point", "coordinates": [162.39683217916104, 0.01637974969199542]}}, {"type": "Feature", "properties": {"norad_id": 54741, "name": "GALAXY 35 (G-35)", "group": "intelsat", "lat": -0.0026548415466657307, "lon": 160.28006069781284, "alt_km": 35791.127591034856, "timestamp": "2025-12-27T10:28:58.458273+00:00", "meta": {"OBJECT_NAME": "GALAXY 35 (G-35)", "OBJECT_ID": "2022-170A", "EPOCH": "2025-12-27T00:34:31.959264", "MEAN_MOTION": 1.00270591, "ECCENTRICITY": 0.0002431, "INCLINATION": 0.0146, "RA_OF_ASC_NODE": 281.3118, "ARG_OF_PERICENTER": 356.1117, "MEAN_ANOMALY": 93.8733, "EPHEMERIS_TYPE": 0, "CLASSIFICATION_TYPE": "U", "NORAD_CAT_ID": 54741, "ELEMENT_SET_NO": 999, "REV_AT_EPOCH": 1116, "BSTAR": 0, "MEAN_MOTION_DOT": -1.4e-06, "MEAN_MOTION_DDOT": 0}, "tle": {"line1": "1 54741U 22170A   25361.02398101 -.00000140  00000+0  00000+0 0  9998", "line2": "2 54741   0.0146 281.3118 0002431 356.1117  93.8733  1.00270591 11169"}}, "geometry": {"type": "Point", "coordinates": [160.28006069781284, -0.0026548415466657307]}}, {"type": "Feature", "properties": {"norad_id": 54742, "name": "GALAXY 36 (G-36)", "group": "intelsat", "lat": 0.021172857558594983, "lon": 164.41185498472046, "alt_km": 35787.99266154404, "timestamp": "2025-12-27T10:28:58.458285+00:00", "meta": {"OBJECT_NAME": "GALAXY 36 (G-36)", "OBJECT_ID": "2022-170B", "EPOCH": "2025-12-27T02:18:24.659136", "MEAN_MOTION": 1.00271564, "ECCENTRICITY": 4.48e-05, "INCLINATION": 0.0235, "RA_OF_ASC_NODE": 104.7183, "ARG_OF_PERICENTER": 225.8754, "MEAN_ANOMALY": 70.8504, "EPHEMERIS_TYPE": 0, "CLASSIFICATION_TYPE": "U", "NORAD_CAT_ID": 54742, "ELEMENT_SET_NO": 999, "REV_AT_EPOCH": 1104, "BSTAR": 0, "MEAN_MOTION_DOT": -1.63e-06, "MEAN_MOTION_DDOT": 0}, "tle": {"line1": "1 54742U 22170B   25361.09611874 -.00000163  00000+0  00000+0 0  9996", "line2": "2 54742   0.0235 104.7183 0000448 225.8754  70.8504  1.00271564 11043"}}, "geometry": {"type": "Point", "coordinates": [164.41185498472046, 0.021172857558594983]}}, {"type": "Feature", "properties": {"norad_id": 57493, "name": "GALAXY 37 (G-37)", "group": "intelsat", "lat": 0.028340880450441478, "lon": 126.38564248863698, "alt_km": 35794.30020318321, "timestamp": "2025-12-27T10:28:58.458297+00:00", "meta": {"OBJECT_NAME": "GALAXY 37 (G-37)", "OBJECT_ID": "2023-112A", "EPOCH": "2025-12-27T00:24:47.890080", "MEAN_MOTION": 1.00271956, "ECCENTRICITY": 0.0002204, "INCLINATION": 0.0129, "RA_OF_ASC_NODE": 45.069, "ARG_OF_PERICENTER": 234.1705, "MEAN_ANOMALY": 55.7071, "EPHEMERIS_TYPE": 0, "CLASSIFICATION_TYPE": "U", "NORAD_CAT_ID": 57493, "ELEMENT_SET_NO": 999, "REV_AT_EPOCH": 881, "BSTAR": 0, "MEAN_MOTION_DOT": 7e-07, "MEAN_MOTION_DDOT": 0}, "tle": {"line1": "1 57493U 23112A   25361.01722095  .00000070  00000+0  00000+0 0  9995", "line2": "2 57493   0.0129  45.0690 0002204 234.1705  55.7071  1.00271956  8819"}}, "geometry": {"type": "Point", "coordinates": [126.38564248863698, 0.028340880450441478]}}]}